NORAD_CAT_ID,OBJECT_NAME,OBJECT_TYPE,EPOCH,MEAN_MOTION,ECCENTRICITY,INCLINATION,RA_OF_ASC_NODE,ARG_OF_PERICENTER,MEAN_ANOMALY,BSTAR,MEAN_MOTION_DOT,MEAN_MOTION_DDOT,TLE_LINE0,TLE_LINE1,TLE_LINE2,SEMIMAJOR_AXIS,PERIOD,APOGEE,PERIGEE,DECAYED
53000.0,STARLINK-4194,PAYLOAD,2022-11-27 06:34:32,15.08844401,0.0003111,53.2189,74.0258,42.2881,317.8351,0.0001154,1.549e-05,0.0,0 STARLINK-4194,1 53000U 22076Q   22331.27399168  .00001549  00000-0  11540-3 0  9994,2 53000  53.2189  74.0258 0003111  42.2881 317.8351 15.08844401 22394,6917.8669999999975,95.437,541.884,537.58,0.0
53000.0,STARLINK-4194,PAYLOAD,2022-11-27 14:31:29,15.08831202,0.0002515,53.22,72.5417,35.2295,324.8863,3.1758e-05,2.17e-06,0.0,0 STARLINK-4194,1 53000U 22076Q   22331.60520019  .00000217  00000-0  31758-4 0  9997,2 53000  53.2200  72.5417 0002515  35.2295 324.8863 15.08831202 22443,6917.906999999997,95.438,541.512,538.0319999999998,0.0
53000.0,STARLINK-4194,PAYLOAD,2022-11-28 12:46:53,15.08842221,0.0002535,53.2201,68.3787,34.8683,325.2475,-3.3554e-05,-8.22e-06,0.0,0 STARLINK-4194,1 53000U 22076Q   22332.53255922 -.00000822  00000-0 -33554-4 0  9998,2 53000  53.2201  68.3787 0002535  34.8683 325.2475 15.08842221 22587,6917.874,95.437,541.492,537.985,0.0
53000.0,STARLINK-4194,PAYLOAD,2022-11-29 06:16:06,15.0884885,0.0002765,53.2199,65.1076,38.3379,321.7809,9.3678e-05,1.203e-05,0.0,0 STARLINK-4194,1 53000U 22076Q   22333.26119101  .00001203  00000-0  93678-4 0  9992,2 53000  53.2199  65.1076 0002765  38.3379 321.7809 15.08848850 22693,6917.853,95.437,541.631,537.806,0.0
53000.0,STARLINK-4194,PAYLOAD,2022-11-29 12:37:39,15.08842436,0.0002516,53.22,63.918,32.9561,327.1588,0.00014253,1.981e-05,0.0,0 STARLINK-4194,1 53000U 22076Q   22333.52615335  .00001981  00000-0  14253-3 0  9995,2 53000  53.2200  63.9180 0002516  32.9561 327.1588 15.08842436 22266,6917.873000000001,95.437,541.4780000000002,537.997,0.0
53000.0,STARLINK-4194,PAYLOAD,2022-11-30 06:06:55,15.08833368,0.0002516,53.2197,60.6478,31.0,329.1141,7.2439e-05,8.64e-06,0.0,0 STARLINK-4194,1 53000U 22076Q   22334.25480359  .00000864  00000-0  72439-4 0  9992,2 53000  53.2197  60.6478 0002516  31.0000 329.1141 15.08833368 22848,6917.901,95.438,541.506,538.025,0.0
53000.0,STARLINK-4194,PAYLOAD,2022-11-30 12:28:27,15.08839507,0.000254,53.2196,59.4587,31.0399,329.0743,0.00011764,1.584e-05,0.0,0 STARLINK-4194,1 53000U 22076Q   22334.51975921  .00001584  00000-0  11764-3 0  9998,2 53000  53.2196  59.4587 0002540  31.0399 329.0743 15.08839507 22413,6917.882,95.438,541.504,537.99,0.0
53000.0,STARLINK-4194,PAYLOAD,2022-11-30 14:03:50,15.08840991,0.0002462,53.2201,59.1601,29.2524,330.8606,6.6824e-05,7.75e-06,0.0,0 STARLINK-4194,1 53000U 22076Q   22334.58599925  .00000775  00000-0  66824-4 0  9990,2 53000  53.2201  59.1601 0002462  29.2524 330.8606 15.08840991 22895,6917.877,95.437,541.446,538.039,0.0
53000.0,STARLINK-4194,PAYLOAD,2022-12-01 05:57:42,15.08835745,0.0002539,53.2189,56.1868,28.5764,331.5367,3.8331e-05,3.22e-06,0.0,0 STARLINK-4194,1 53000U 22076Q   22335.24840305  .00000322  00000-0  38331-4 0  9995,2 53000  53.2189  56.1868 0002539  28.5764 331.5367 15.08835745 22528,6917.893,95.438,541.515,538.002,0.0
53000.0,STARLINK-4194,PAYLOAD,2022-12-01 13:54:37,15.08839501,0.0002549,53.219,54.6999,29.6247,330.4889,6.1384e-05,6.89e-06,0.0,0 STARLINK-4194,1 53000U 22076Q   22335.57960055  .00000689  00000-0  61384-4 0  9996,2 53000  53.2190  54.6999 0002549  29.6247 330.4889 15.08839501 22573,6917.882,95.438,541.51,537.984,0.0
53000.0,STARLINK-4194,PAYLOAD,2022-12-02 12:10:01,15.08845862,0.0002698,53.2198,50.5372,28.7287,331.3854,7.6419e-05,9.28e-06,0.0,0 STARLINK-4194,1 53000U 22076Q   22336.50695679  .00000928  00000-0  76419-4 0  9998,2 53000  53.2198  50.5372 0002698  28.7287 331.3854 15.08845862 23187,6917.861999999999,95.437,541.594,537.861,0.0
53000.0,STARLINK-4194,PAYLOAD,2022-12-02 15:20:47,15.08845753,0.0002641,53.22,49.9431,27.5043,332.6089,7.6121e-05,9.23e-06,0.0,0 STARLINK-4194,1 53000U 22076Q   22336.63943619  .00000923  00000-0  76121-4 0  9997,2 53000  53.2200  49.9431 0002641  27.5043 332.6089 15.08845753 22737,6917.863,95.437,541.555,537.901,0.0
53000.0,STARLINK-4194,PAYLOAD,2022-12-02 21:42:20,15.08837843,0.0002707,53.219,48.7539,28.1803,331.9335,-7.918e-06,-4.15e-06,0.0,0 STARLINK-4194,1 53000U 22076Q   22336.90440392 -.00000415  00000-0 -79180-5 0  9994,2 53000  53.2190  48.7539 0002707  28.1803 331.9335 15.08837843 23249,6917.887,95.438,541.625,537.879,0.0
53000.0,STARLINK-4194,PAYLOAD,2022-12-03 13:36:12,15.088378099999998,0.0002628999999999,53.2201,45.7793,31.0164,329.0983,-2.6162e-05,-7.05e-06,0.0,0 STARLINK-4194,1 53000U 22076Q   22337.56680581 -.00000705  00000-0 -26162-4 0  9996,2 53000  53.2201  45.7793 0002629  31.0164 329.0983 15.08837810 22876,6917.887,95.438,541.571,537.933,0.0
53000.0,STARLINK-4194,PAYLOAD,2022-12-03 15:11:35,15.08835829,0.0002617,53.2199,45.4821,30.9452,329.1694,-3.5529e-05,-8.54e-06,0.0,0 STARLINK-4194,1 53000U 22076Q   22337.63304730 -.00000854  00000-0 -35529-4 0  9995,2 53000  53.2199  45.4821 0002617  30.9452 329.1694 15.08835829 22885,6917.893,95.438,541.569,537.948,0.0
53000.0,STARLINK-4194,PAYLOAD,2022-12-04 05:30:03,15.08842754,0.0002798,53.2196,42.8061,27.9805,332.1337,2.8884e-05,1.71e-06,0.0,0 STARLINK-4194,1 53000U 22076Q   22338.22920228  .00000171  00000-0  28884-4 0  9993,2 53000  53.2196  42.8061 0002798  27.9805 332.1337 15.08842754 23443,6917.871999999999,95.437,541.673,537.8009999999998,0.0
53000.0,STARLINK-4194,PAYLOAD,2022-12-04 11:51:35,15.0884329,0.0002713,53.22,41.6175,30.2899,329.825,3.485e-05,2.66e-06,0.0,0 STARLINK-4194,1 53000U 22076Q   22338.49416094  .00000266  00000-0  34850-4 0  9998,2 53000  53.2200  41.6175 0002713  30.2899 329.8250 15.08843290 23015,6917.87,95.437,541.612,537.859,0.0
53000.0,STARLINK-4194,PAYLOAD,2022-12-05 05:20:49,15.08843225,0.0002753,53.2191,38.3445,31.6281,328.4877,6.8088e-05,7.95e-06,0.0,0 STARLINK-4194,1 53000U 22076Q   22339.22280063  .00000795  00000-0  68088-4 0  9992,2 53000  53.2191  38.3445 0002753  31.6281 328.4877 15.08843225 23121,6917.871,95.437,541.64,537.831,0.0
53000.0,STARLINK-4194,PAYLOAD,2022-12-05 21:14:41,15.08842865,0.000285,53.2196,35.3717,32.982,327.135,0.00010484,1.381e-05,0.0,0 STARLINK-4194,1 53000U 22076Q   22339.88519983  .00001381  00000-0  10484-3 0  9998,2 53000  53.2196  35.3717 0002850  32.9820 327.1350 15.08842865 23699,6917.871999999999,95.437,541.7080000000002,537.765,0.0
53000.0,STARLINK-4194,PAYLOAD,2022-12-06 09:57:45,15.08852066,0.0002777,53.2192,32.9926,32.6005,327.5158,5.2802e-05,5.52e-06,0.0,0 STARLINK-4194,1 53000U 22076Q   22340.41511394  .00000552  00000-0  52802-4 0  9997,2 53000  53.2192  32.9926 0002777  32.6005 327.5158 15.08852066 23302,6917.844,95.437,541.63,537.7869999999998,0.0
53000.0,STARLINK-4194,PAYLOAD,2022-12-07 12:59:16,15.08892402,0.0002739,53.2195,27.9417,11.2884,348.8169,0.00022732,3.336e-05,0.0,0 STARLINK-4194,1 53000U 22076Q   22341.54116389  .00003336  00000-0  22732-3 0  9998,2 53000  53.2195  27.9417 0002739  11.2884 348.8169 15.08892402 23946,6917.72,95.434,541.48,537.69,0.0
53000.0,STARLINK-4194,PAYLOAD,2022-12-07 14:34:43,15.0883292,0.0002997,53.2194,27.6423,16.5168,343.5921,6.7294e-05,7.82e-06,0.0,0 STARLINK-4194,1 53000U 22076Q   22341.60744784  .00000782  00000-0  67294-4 0  9996,2 53000  53.2194  27.6423 0002997  16.5168 343.5921 15.08832920 23956,6917.901999999999,95.438,541.84,537.694,0.0
53000.0,STARLINK-4194,PAYLOAD,2022-12-08 03:17:47,15.08841662,0.0002791,53.2179,25.2629,26.2263,333.88699999999994,8.717600000000001e-05,1.099e-05,0.0,0 STARLINK-4194,1 53000U 22076Q   22342.13736098  .00001099  00000-0  87176-4 0  9997,2 53000  53.2179  25.2629 0002791  26.2263 333.8870 15.08841662 24035,6917.875,95.437,541.6709999999998,537.81,0.0
53000.0,STARLINK-4194,PAYLOAD,2022-12-08 09:39:20,15.08845981,0.000299,53.219,24.0767,29.3731,330.7428,6.6304e-05,7.67e-06,0.0,0 STARLINK-4194,1 53000U 22076Q   22342.40231798  .00000767  00000-0  66304-4 0  9995,2 53000  53.2190  24.0767 0002990  29.3731 330.7428 15.08845981 23608,6917.861999999999,95.437,541.7959999999998,537.659,0.0
53000.0,STARLINK-4194,PAYLOAD,2022-12-09 19:02:26,15.08852832,0.0002753,53.2183,17.8347,33.7524,326.3643,-0.00012013,-2.201e-05,0.0,0 STARLINK-4194,1 53000U 22076Q   22343.79336065 -.00002201  00000-0 -12013-3 0  9995,2 53000  53.2183  17.8347 0002753  33.7524 326.3643 15.08852832 24288,6917.840999999999,95.437,541.611,537.802,0.0
53000.0,STARLINK-4194,PAYLOAD,2022-12-10 06:09:58,15.08981868,0.0001185,53.2201,15.7536,39.3073,320.8005,0.0012833,0.00020274,0.0,0 STARLINK-4194,1 53000U 22076Q   22344.25692253  .00020274  00000-0  12833-2 0  9998,2 53000  53.2201  15.7536 0001185  39.3073 320.8005 15.08981868 24356,6917.446999999999,95.429,540.132,538.492,0.0
53000.0,STARLINK-4194,PAYLOAD,2022-12-10 12:31:41,15.08847549,0.0003392,53.2193,14.563,13.8913,346.2172,0.00014701,2.052e-05,0.0,0 STARLINK-4194,1 53000U 22076Q   22344.52200377  .00002052  00000-0  14701-3 0  9991,2 53000  53.2193  14.5630 0003392  13.8913 346.2172 15.08847549 23926,6917.857,95.437,542.069,537.376,0.0
53000.0,STARLINK-4194,PAYLOAD,2022-12-10 14:07:04,15.08839106,0.0002901,53.2187,14.2631,23.62,336.4925,5.1008e-05,5.23e-06,0.0,0 STARLINK-4194,1 53000U 22076Q   22344.58824809  .00000523  00000-0  51008-4 0  9992,2 53000  53.2187  14.2631 0002901  23.6200 336.4925 15.08839106 24401,6917.8830000000025,95.438,541.755,537.741,0.0
53000.0,STARLINK-4194,PAYLOAD,2022-12-11 13:57:52,15.08831085,0.0002765,53.2178,9.7996,23.3194,336.7923,3.2306e-05,2.26e-06,0.0,0 STARLINK-4194,1 53000U 22076Q   22345.58185416  .00000226  00000-0  32306-4 0  9997,2 53000  53.2178   9.7996 0002765  23.3194 336.7923 15.08831085 24556,6917.908,95.438,541.685,537.86,0.0
